{"type": "FeatureCollection", "features": [ {"type": "Feature", "properties": {"norad_id": 30596, "name": "FENGYUN 1C DEB", "group": "fengyun-1c-debris", "lat": 33.46375201105039, "lon": -24.816419411843114, "alt_km": 781.928863383433, "timestamp": "2025-12-08T23:34:04.246924+00:00", "meta": {"OBJECT_NAME": "FENGYUN 1C DEB", "OBJECT_ID": "1999-025AMB", "EPOCH": "2025-12-07T22:26:10.005792", "MEAN_MOTION": 14.34336347, "ECCENTRICITY": 0.02475609, "INCLINATION": 98.4129, "RA_OF_ASC_NODE": 339.7768, "ARG_OF_PERICENTER": 303.4738, "MEAN_ANOMALY": 83.6667, "EPHEMERIS_TYPE": 0, "CLASSIFICATION_TYPE": "U", "NORAD_CAT_ID": 30596, "ELEMENT_SET_NO": 999, "REV_AT_EPOCH": 98492, "BSTAR": 0.00062869466, "MEAN_MOTION_DOT": 2.442e-05, "MEAN_MOTION_DDOT": 0}, "tle": {"line1": "1 30596U 99025AMB 25341.93483803  .00002442  00000+0  62869-3 0  9996", "line2": "2 30596  98.4129 339.7768 0247560 303.4738  83.6667 14.34336347984929"}}, "geometry": {"type": "Point", "coordinates": [-24.816419411843114, 33.46375201105039]}}, {"type": "Feature", "properties": {"norad_id": 30597, "name": "FENGYUN 1C DEB", "group": "fengyun-1c-debris", "lat": -26.85548730754321, "lon": 94.3660894593451, "alt_km": 571.1309652723194, "timestamp": "2025-12-08T23:34:04.246934+00:00", "meta": {"OBJECT_NAME": "FENGYUN 1C DEB", "OBJECT_ID": "1999-025AMC", "EPOCH": "2025-12-08T06:32:45.550752", "MEAN_MOTION": 14.91762245, "ECCENTRICITY": 0.00445307, "INCLINATION": 98.9449, "RA_OF_ASC_NODE": 278.1365, "ARG_OF_PERICENTER": 178.9859, "MEAN_ANOMALY": 181.1454, "EPHEMERIS_TYPE": 0, "CLASSIFICATION_TYPE": "U", "NORAD_CAT_ID": 30597, "ELEMENT_SET_NO": 999, "REV_AT_EPOCH": 98470, "BSTAR": 0.0055206444, "MEAN_MOTION_DOT": 0.00057057, "MEAN_MOTION_DDOT": 0}, "tle": {"line1": "1 30597U 99025AMC 25342.27274943  .00057057  00000+0  55206-2 0  9996", "line2": "2 30597  98.9449 278.1365 0044530 178.9859 181.1454 14.91762245984707"}}, "geometry": {"type": "Point", "coordinates": [94.3660894593451, -26.85548730754321]}}, {"type": "Feature", "properties": {"norad_id": 30599, "name": "FENGYUN 1C DEB", "group": "fengyun-1c-debris", "lat": -10.987343749440264, "lon": 173.0204457363138, "alt_km": 1040.5895480896243, "timestamp": "2025-12-08T23:34:04.246945+00:00", "meta": {"OBJECT_NAME": "FENGYUN 1C DEB", "OBJECT_ID": "1999-025AME", "EPOCH": "2025-12-07T17:54:38.760480", "MEAN_MOTION": 14.19654052, "ECCENTRICITY": 0.03027126, "INCLINATION": 98.6032, "RA_OF_ASC_NODE": 353.502, "ARG_OF_PERICENTER": 359.2309, "MEAN_ANOMALY": 0.8364, "EPHEMERIS_TYPE": 0, "CLASSIFICATION_TYPE": "U", "NORAD_CAT_ID": 30599, "ELEMENT_SET_NO": 999, "REV_AT_EPOCH": 97096, "BSTAR": 0.0013635372, "MEAN_MOTION_DOT": 4.516e-05, "MEAN_MOTION_DDOT": 0}, "tle": {"line1": "1 30599U 99025AME 25341.74628195  .00004516  00000+0  13635-2 0  9993", "line2": "2 30599  98.6032 353.5020 0302712 359.2309   0.8364 14.19654052970969"}}, "geometry": {"type": "Point", "coordinates": [173.0204457363138, -10.987343749440264]}}, {"type": "Feature", "properties": {"norad_id": 30600, "name": "FENGYUN 1C DEB", "group": "fengyun-1c-debris", "lat": 77.1343047951472, "lon": 148.2345377462839, "alt_km": 1081.4163801136428, "timestamp": "2025-12-08T23:34:04.246955+00:00", "meta": {"OBJECT_NAME": "FENGYUN 1C DEB", "OBJECT_ID": "1999-025AMF", "EPOCH": "2025-12-08T14:32:23.614368", "MEAN_MOTION": 14.073666, "ECCENTRICITY": 0.03285495, "INCLINATION": 98.3886, "RA_OF_ASC_NODE": 287.6405, "ARG_OF_PERICENTER": 259.27, "MEAN_ANOMALY": 97.1326, "EPHEMERIS_TYPE": 0, "CLASSIFICATION_TYPE": "U", "NORAD_CAT_ID": 30600, "ELEMENT_SET_NO": 999, "REV_AT_EPOCH": 94374, "BSTAR": 0.0063408851, "MEAN_MOTION_DOT": 0.00017455, "MEAN_MOTION_DDOT": 0}, "tle": {"line1": "1 30600U 99025AMF 25342.60582887  .00017455  00000+0  63409-2 0  9999", "line2": "2 30600  98.3886 287.6405 0328549 259.2700  97.1326 14.07366600943749"}}, "geometry": {"type": "Point", "coordinates": [148.2345377462839, 77.1343047951472]}}, {"type": "Feature", "properties": {"norad_id": 30602, "name": "FENGYUN 1C DEB", "group": "fengyun-1c-debris", "lat": 64.22734736788331, "lon": -122.91065897651532, "alt_km": 587.8378423363947, "timestamp": "2025-12-08T23:34:04.246966+00:00", "meta": {"OBJECT_NAME": "FENGYUN 1C DEB", "OBJECT_ID": "1999-025AMH", "EPOCH": "2025-12-08T12:48:18.046080", "MEAN_MOTION": 14.9026458, "ECCENTRICITY": 0.00092935, "INCLINATION": 99.0327, "RA_OF_ASC_NODE": 255.8138, "ARG_OF_PERICENTER": 132.5032, "MEAN_ANOMALY": 48.8456, "EPHEMERIS_TYPE": 0, "CLASSIFICATION_TYPE": "U", "NORAD_CAT_ID": 30602, "ELEMENT_SET_NO": 999, "REV_AT_EPOCH": 97742, "BSTAR": 0.0094908288, "MEAN_MOTION_DOT": 0.00093352, "MEAN_MOTION_DDOT": 0}, "tle": {"line1": "1 30602U 99025AMH 25342.53354220  .00093352  00000+0  94908-2 0  9999", "line2": "2 30602  99.0327 255.8138 0009293 132.5032  48.8456 14.90264580977427"}}, "geometry": {"type": "Point", "coordinates": [-122.91065897651532, 64.22734736788331]}}, {"type": "Feature", "properties": {"norad_id": 30603, "name": "FENGYUN 1C DEB", "group": "fengyun-1c-debris", "lat": 8.800095527112116, "lon": 4.976248231120294, "alt_km": 1070.5628505491195, "timestamp": "2025-12-08T23:34:04.246976+00:00", "meta": {"OBJECT_NAME": "FENGYUN 1C DEB", "OBJECT_ID": "1999-025AMJ", "EPOCH": "2025-12-08T01:15:11.407968", "MEAN_MOTION": 13.84099041, "ECCENTRICITY": 0.01831852, "INCLINATION": 98.4095, "RA_OF_ASC_NODE": 5.4555, "ARG_OF_PERICENTER": 218.1582, "MEAN_ANOMALY": 199.5793, "EPHEMERIS_TYPE": 0, "CLASSIFICATION_TYPE": "U", "NORAD_CAT_ID": 30603, "ELEMENT_SET_NO": 999, "REV_AT_EPOCH": 94811, "BSTAR": 0.001744545, "MEAN_MOTION_DOT": 2.174e-05, "MEAN_MOTION_DDOT": 0}, "tle": {"line1": "1 30603U 99025AMJ 25342.05221537  .00002174  00000+0  17445-2 0  9994", "line2": "2 30603  98.4095   5.4555 0183185 218.1582 199.5793 13.84099041948111"}}, "geometry": {"type": "Point", "coordinates": [4.976248231120294, 8.800095527112116]}}, {"type": "Feature", "properties": {"norad_id": 30604, "name": "FENGYUN 1C DEB", "group": "fengyun-1c-debris", "lat": -38.85427144125176, "lon": -168.85416622652025, "alt_km": 959.7899406715496, "timestamp": "2025-12-08T23:34:04.246987+00:00", "meta": {"OBJECT_NAME": "FENGYUN 1C DEB", "OBJECT_ID": "1999-025AMK", "EPOCH": "2025-12-08T09:06:41.243328", "MEAN_MOTION": 14.23599788, "ECCENTRICITY": 0.02099617, "INCLINATION": 98.4029, "RA_OF_ASC_NODE": 17.4087, "ARG_OF_PERICENTER": 19.6162, "MEAN_ANOMALY": 355.2798, "EPHEMERIS_TYPE": 0, "CLASSIFICATION_TYPE": "U", "NORAD_CAT_ID": 30604, "ELEMENT_SET_NO": 999, "REV_AT_EPOCH": 97777, "BSTAR": 0.00053289688, "MEAN_MOTION_DOT": 1.479e-05, "MEAN_MOTION_DDOT": 0}, "tle": {"line1": "1 30604U 99025AMK 25342.37964402  .00001479  00000+0  53290-3 0  9991", "line2": "2 30604  98.4029  17.4087 0209961  19.6162 355.2798 14.23599788977778"}}, "geometry": {"type": "Point", "coordinates": [-168.85416622652025, -38.85427144125176]}}, {"type": "Feature", "properties": {"norad_id": 30606, "name": "FENGYUN 1C DEB", "group": "fengyun-1c-debris", "lat": 68.42158693983613, "lon": -165.66618688808282, "alt_km": 574.9346863441651, "timestamp": "2025-12-08T23:34:04.246997+00:00", "meta": {"OBJECT_NAME": "FENGYUN 1C DEB", "OBJECT_ID": "1999-025AMM", "EPOCH": "2025-12-08T12:13:13.780128", "MEAN_MOTION": 14.57589446, "ECCENTRICITY": 0.02140599, "INCLINATION": 98.0959, "RA_OF_ASC_NODE": 352.7788, "ARG_OF_PERICENTER": 150.3088, "MEAN_ANOMALY": 1.7423, "EPHEMERIS_TYPE": 0, "CLASSIFICATION_TYPE": "U", "NORAD_CAT_ID": 30606, "ELEMENT_SET_NO": 999, "REV_AT_EPOCH": 99180, "BSTAR": 0.00078173995, "MEAN_MOTION_DOT": 4.83e-05, "MEAN_MOTION_DDOT": 0}, "tle": {"line1": "1 30606U 99025AMM 25342.50918727  .00004830  00000+0  78174-3 0  9999", "line2": "2 30606  98.0959 352.7788 0214059 150.3088   1.7423 14.57589446991800"}}, "geometry": {"type": "Point", "coordinates": [-165.66618688808282, 68.42158693983613]}}, {"type": "Feature", "properties": {"norad_id": 30608, "name": "FENGYUN 1C DEB", "group": "fengyun-1c-debris", "lat": -51.91690790794383, "lon": -145.62884832034115, "alt_km": 795.4915382078243, "timestamp": "2025-12-08T23:34:04.247008+00:00", "meta": {"OBJECT_NAME": "FENGYUN 1C DEB", "OBJECT_ID": "1999-025AMP", "EPOCH": "2025-12-08T10:45:54.548064", "MEAN_MOTION": 14.28439778, "ECCENTRICITY": 0.00158358, "INCLINATION": 98.7104, "RA_OF_ASC_NODE": 45.1208, "ARG_OF_PERICENTER": 191.5685, "MEAN_ANOMALY": 179.3823, "EPHEMERIS_TYPE": 0, "CLASSIFICATION_TYPE": "U", "NORAD_CAT_ID": 30608, "ELEMENT_SET_NO": 999, "REV_AT_EPOCH": 97378, "BSTAR": 0.0018319473, "MEAN_MOTION_DOT": 4.548e-05, "MEAN_MOTION_DDOT": 0}, "tle": {"line1": "1 30608U 99025AMP 25342.44854801  .00004548  00000+0  18319-2 0  9996", "line2": "2 30608  98.7104  45.1208 0015835 191.5685 179.3823 14.28439778973785"}}, "geometry": {"type": "Point", "coordinates": [-145.62884832034115, -51.91690790794383]}}, {"type": "Feature", "properties": {"norad_id": 30609, "name": "FENGYUN 1C DEB", "group": "fengyun-1c-debris", "lat": -5.923122192554389, "lon": -99.33613565430478, "alt_km": 827.7612733563819, "timestamp": "2025-12-08T23:34:04.247018+00:00", "meta": {"OBJECT_NAME": "FENGYUN 1C DEB", "OBJECT_ID": "1999-025AMQ", "EPOCH": "2025-12-06T17:08:31.037568", "MEAN_MOTION": 14.11134801, "ECCENTRICITY": 0.01189523, "INCLINATION": 98.5675, "RA_OF_ASC_NODE": 257.6035, "ARG_OF_PERICENTER": 69.9172, "MEAN_ANOMALY": 291.4756, "EPHEMERIS_TYPE": 0, "CLASSIFICATION_TYPE": "U", "NORAD_CAT_ID": 30609, "ELEMENT_SET_NO": 999, "REV_AT_EPOCH": 95643, "BSTAR": 0.0036904109, "MEAN_MOTION_DOT": 7.069e-05, "MEAN_MOTION_DDOT": 0}, "tle": {"line1": "1 30609U 99025AMQ 25340.71424812  .00007069  00000+0  36904-2 0  9991", "line2": "2 30609  98.5675 257.6035 0118952  69.9172 291.4756 14.11134801956433"}}, "geometry": {"type": "Point", "coordinates": [-99.33613565430478, -5.923122192554389]}}]}